start=new Date('2021-09-20T00:00:00.000Z').valueOf();
sats=[{"ARG_OF_PERICENTER":"87.8935","CENTER_NAME":"EARTH","ELEMENT_SET_NO":"999","MEAN_MOTION":"15.06399897","ECCENTRICITY":"0.00013190","MEAN_ELEMENT_THEORY":"SGP4","INCLINATION":"53.0572","TIME_SYSTEM":"UTC","EPOCH":"2021-09-19T17:40:27.673824","PERIOD":"95.592","MEAN_MOTION_DOT":"-0.00000529","REF_FRAME":"TEME","APOAPSIS":"548.127","LAUNCH_DATE":"2021-03-11","FILE":"3120378","TLE_LINE1":"1 47826U 21018AR  21262.73643141 -.00000529  00000-0 -16647-4 0  9997","COUNTRY_CODE":"US","REV_AT_EPOCH":"3062","EPHEMERIS_TYPE":"0","CLASSIFICATION_TYPE":"U","SITE":"AFETR","SEMIMAJOR_AXIS":"6925.349","RA_OF_ASC_NODE":"17.7384","BSTAR":"-0.00001664700000","PERIAPSIS":"546.300","OBJECT_ID":"2021-018AR","RCS_SIZE":"LARGE","TLE_LINE2":"2 47826  53.0572  17.7384 0001319  87.8935 272.2205 15.06399897 30623","OBJECT_NAME":"STARLINK-2411","DECAY_DATE":null,"MEAN_MOTION_DDOT":"0.0000000000000","GP_ID":"185057383","MEAN_ANOMALY":"272.2205","NORAD_CAT_ID":"47826","OBJECT_TYPE":"PAYLOAD"},{"OBJECT_NAME":"STARLINK-2413","SITE":"AFETR","SEMIMAJOR_AXIS":"6925.340","BSTAR":"0.00012312000000","RA_OF_ASC_NODE":"7.6189","OBJECT_ID":"2021-018AS","PERIAPSIS":"546.437","TLE_LINE2":"2 47827  53.0585   7.6189 0001109 107.3864 252.7246 15.06402687 30827","RCS_SIZE":"LARGE","OBJECT_TYPE":"PAYLOAD","NORAD_CAT_ID":"47827","DECAY_DATE":null,"GP_ID":"185056634","MEAN_MOTION_DDOT":"0.0000000000000","MEAN_ANOMALY":"252.7246","COUNTRY_CODE":"US","TLE_LINE1":"1 47827U 21018AS  21262.76221602  .00001553  00000-0  12312-3 0  9995","CLASSIFICATION_TYPE":"U","REV_AT_EPOCH":"3082","EPHEMERIS_TYPE":"0","TIME_SYSTEM":"UTC","EPOCH":"2021-09-19T18:17:35.464128","PERIOD":"95.592","LAUNCH_DATE":"2021-03-11","FILE":"3120378","MEAN_MOTION_DOT":"0.00001553","REF_FRAME":"TEME","APOAPSIS":"547.973","ELEMENT_SET_NO":"999","CENTER_NAME":"EARTH","ARG_OF_PERICENTER":"107.3864","ECCENTRICITY":"0.00011090","MEAN_ELEMENT_THEORY":"SGP4","INCLINATION":"53.0585","MEAN_MOTION":"15.06402687"},{"LAUNCH_DATE":"2021-03-11","FILE":"3120378","MEAN_MOTION_DOT":"-0.00000532","REF_FRAME":"TEME","APOAPSIS":"548.296","TIME_SYSTEM":"UTC","EPOCH":"2021-09-19T17:17:54.663648","PERIOD":"95.592","ECCENTRICITY":"0.00015540","MEAN_ELEMENT_THEORY":"SGP4","INCLINATION":"53.0567","MEAN_MOTION":"15.06397936","ELEMENT_SET_NO":"999","ARG_OF_PERICENTER":"95.4723","CENTER_NAME":"EARTH","NORAD_CAT_ID":"47828","OBJECT_TYPE":"PAYLOAD","DECAY_DATE":null,"MEAN_MOTION_DDOT":"0.0000000000000","GP_ID":"185056881","MEAN_ANOMALY":"264.6444","OBJECT_NAME":"STARLINK-2415","SITE":"AFETR","BSTAR":"-0.00001678900000","SEMIMAJOR_AXIS":"6925.355","RA_OF_ASC_NODE":"27.8059","OBJECT_ID":"2021-018AT","PERIAPSIS":"546.144","RCS_SIZE":"LARGE","TLE_LINE2":"2 47828  53.0567  27.8059 0001554  95.4723 264.6444 15.06397936 30487","CLASSIFICATION_TYPE":"U","REV_AT_EPOCH":"3048","EPHEMERIS_TYPE":"0","COUNTRY_CODE":"US","TLE_LINE1":"1 47828U 21018AT  21262.72077157 -.00000532  00000-0 -16789-4 0  9997"},{"LAUNCH_DATE":"2021-03-11","FILE":"3120015","MEAN_MOTION_DOT":"0.00000896","REF_FRAME":"TEME","APOAPSIS":"548.187","TIME_SYSTEM":"UTC","EPOCH":"2021-09-19T14:33:21.345120","PERIOD":"95.592","ECCENTRICITY":"0.00014340","MEAN_ELEMENT_THEORY":"SGP4","INCLINATION":"53.0577","MEAN_MOTION":"15.06406383","ELEMENT_SET_NO":"999","CENTER_NAME":"EARTH","ARG_OF_PERICENTER":"99.4480","OBJECT_TYPE":"PAYLOAD","NORAD_CAT_ID":"47829","DECAY_DATE":null,"GP_ID":"185026091","MEAN_MOTION_DDOT":"0.0000000000000","MEAN_ANOMALY":"260.6671","OBJECT_NAME":"STARLINK-2416","SEMIMAJOR_AXIS":"6925.329","SITE":"AFETR","RA_OF_ASC_NODE":"28.3225","BSTAR":"0.00007901200000","OBJECT_ID":"2021-018AU","PERIAPSIS":"546.201","TLE_LINE2":"2 47829  53.0577  28.3225 0001434  99.4480 260.6671 15.06406383 30453","RCS_SIZE":"LARGE","CLASSIFICATION_TYPE":"U","REV_AT_EPOCH":"3045","EPHEMERIS_TYPE":"0","COUNTRY_CODE":"US","TLE_LINE1":"1 47829U 21018AU  21262.60649705  .00000896  00000-0  79012-4 0  9998"},{"GP_ID":"185057883","MEAN_MOTION_DDOT":"0.0000000000000","DECAY_DATE":null,"MEAN_ANOMALY":"261.5192","NORAD_CAT_ID":"47830","OBJECT_TYPE":"PAYLOAD","SITE":"AFETR","SEMIMAJOR_AXIS":"6925.359","RA_OF_ASC_NODE":"27.7390","BSTAR":"0.00002518500000","TLE_LINE2":"2 47830  53.0578  27.7390 0001294  98.5944 261.5192 15.06396484 30471","RCS_SIZE":"LARGE","PERIAPSIS":"546.328","OBJECT_ID":"2021-018AV","OBJECT_NAME":"STARLINK-2419","REV_AT_EPOCH":"3047","EPHEMERIS_TYPE":"0","CLASSIFICATION_TYPE":"U","TLE_LINE1":"1 47830U 21018AV  21262.73551031  .00000094  00000-0  25185-4 0  9990","COUNTRY_CODE":"US","REF_FRAME":"TEME","MEAN_MOTION_DOT":"0.00000094","APOAPSIS":"548.120","LAUNCH_DATE":"2021-03-11","FILE":"3120378","TIME_SYSTEM":"UTC","PERIOD":"95.592","EPOCH":"2021-09-19T17:39:08.090784","MEAN_MOTION":"15.06396484","ECCENTRICITY":"0.00012940","INCLINATION":"53.0578","MEAN_ELEMENT_THEORY":"SGP4","CENTER_NAME":"EARTH","ARG_OF_PERICENTER":"98.5944","ELEMENT_SET_NO":"999"},{"OBJECT_TYPE":"PAYLOAD","NORAD_CAT_ID":"47831","DECAY_DATE":null,"MEAN_MOTION_DDOT":"0.0000000000000","GP_ID":"185056135","MEAN_ANOMALY":"244.3909","OBJECT_NAME":"STARLINK-2420","SEMIMAJOR_AXIS":"6925.375","SITE":"AFETR","BSTAR":"-0.00002454300000","RA_OF_ASC_NODE":"2.7111","PERIAPSIS":"546.474","OBJECT_ID":"2021-018AW","TLE_LINE2":"2 47831  53.0535   2.7111 0001105 115.7195 244.3909 15.06391479 30889","RCS_SIZE":"LARGE","CLASSIFICATION_TYPE":"U","REV_AT_EPOCH":"3088","EPHEMERIS_TYPE":"0","COUNTRY_CODE":"US","TLE_LINE1":"1 47831U 21018AW  21262.74240438 -.00000647  00000-0 -24543-4 0  9991","LAUNCH_DATE":"2021-03-11","FILE":"3120378","MEAN_MOTION_DOT":"-0.00000647","REF_FRAME":"TEME","APOAPSIS":"548.005","TIME_SYSTEM":"UTC","EPOCH":"2021-09-19T17:49:03.738432","PERIOD":"95.593","ECCENTRICITY":"0.00011050","MEAN_ELEMENT_THEORY":"SGP4","INCLINATION":"53.0535","MEAN_MOTION":"15.06391479","ELEMENT_SET_NO":"999","CENTER_NAME":"EARTH","ARG_OF_PERICENTER":"115.7195"},{"MEAN_MOTION":"15.06396310","INCLINATION":"53.0571","MEAN_ELEMENT_THEORY":"SGP4","ECCENTRICITY":"0.00012720","ARG_OF_PERICENTER":"89.9081","CENTER_NAME":"EARTH","ELEMENT_SET_NO":"999","APOAPSIS":"548.106","REF_FRAME":"TEME","MEAN_MOTION_DOT":"-0.00000437","FILE":"3120378","LAUNCH_DATE":"2021-03-11","PERIOD":"95.592","EPOCH":"2021-09-19T16:36:46.462752","TIME_SYSTEM":"UTC","EPHEMERIS_TYPE":"0","REV_AT_EPOCH":"3061","CLASSIFICATION_TYPE":"U","TLE_LINE1":"1 47832U 21018AX  21262.69220443 -.00000437  00000-0 -10438-4 0  9995","COUNTRY_CODE":"US","MEAN_ANOMALY":"270.2054","GP_ID":"185056382","MEAN_MOTION_DDOT":"0.0000000000000","DECAY_DATE":null,"NORAD_CAT_ID":"47832","OBJECT_TYPE":"PAYLOAD","RCS_SIZE":"LARGE","TLE_LINE2":"2 47832  53.0571  17.9355 0001272  89.9081 270.2054 15.06396310 30618","OBJECT_ID":"2021-018AX","PERIAPSIS":"546.344","BSTAR":"-0.00001043800000","SITE":"AFETR","SEMIMAJOR_AXIS":"6925.360","RA_OF_ASC_NODE":"17.9355","OBJECT_NAME":"STARLINK-2422"},{"REV_AT_EPOCH":"3067","EPHEMERIS_TYPE":"0","CLASSIFICATION_TYPE":"U","TLE_LINE1":"1 47833U 21018AY  21262.71800490  .00000566  00000-0  56899-4 0  9997","COUNTRY_CODE":"US","GP_ID":"185057631","MEAN_MOTION_DDOT":"0.0000000000000","DECAY_DATE":null,"MEAN_ANOMALY":"265.1619","NORAD_CAT_ID":"47833","OBJECT_TYPE":"PAYLOAD","SITE":"AFETR","BSTAR":"0.00005689900000","SEMIMAJOR_AXIS":"6925.363","RA_OF_ASC_NODE":"17.8195","RCS_SIZE":"LARGE","TLE_LINE2":"2 47833  53.0573  17.8195 0001461  94.9537 265.1619 15.06395278 30672","PERIAPSIS":"546.216","OBJECT_ID":"2021-018AY","OBJECT_NAME":"STARLINK-2423","MEAN_MOTION":"15.06395278","ECCENTRICITY":"0.00014610","INCLINATION":"53.0573","MEAN_ELEMENT_THEORY":"SGP4","CENTER_NAME":"EARTH","ARG_OF_PERICENTER":"94.9537","ELEMENT_SET_NO":"999","REF_FRAME":"TEME","MEAN_MOTION_DOT":"0.00000566","APOAPSIS":"548.240","LAUNCH_DATE":"2021-03-11","FILE":"3120378","TIME_SYSTEM":"UTC","PERIOD":"95.592","EPOCH":"2021-09-19T17:13:55.623360"},{"APOAPSIS":"548.057","REF_FRAME":"TEME","MEAN_MOTION_DOT":"-0.00000055","FILE":"3120378","LAUNCH_DATE":"2021-03-11","PERIOD":"95.592","EPOCH":"2021-09-19T17:29:50.631072","TIME_SYSTEM":"UTC","MEAN_MOTION":"15.06401018","INCLINATION":"53.0570","MEAN_ELEMENT_THEORY":"SGP4","ECCENTRICITY":"0.00012220","CENTER_NAME":"EARTH","ARG_OF_PERICENTER":"98.7792","ELEMENT_SET_NO":"999","MEAN_ANOMALY":"261.3336","GP_ID":"185057384","MEAN_MOTION_DDOT":"0.0000000000000","DECAY_DATE":null,"NORAD_CAT_ID":"47834","OBJECT_TYPE":"PAYLOAD","TLE_LINE2":"2 47834  53.0570  17.7678 0001222  98.7792 261.3336 15.06401018 30679","RCS_SIZE":"LARGE","PERIAPSIS":"546.364","OBJECT_ID":"2021-018AZ","SITE":"AFETR","SEMIMAJOR_AXIS":"6925.345","BSTAR":"0.00001519000000","RA_OF_ASC_NODE":"17.7678","OBJECT_NAME":"STARLINK-2424","EPHEMERIS_TYPE":"0","REV_AT_EPOCH":"3067","CLASSIFICATION_TYPE":"U","TLE_LINE1":"1 47834U 21018AZ  21262.72905823 -.00000055  00000-0  15190-4 0  9998","COUNTRY_CODE":"US"},{"CENTER_NAME":"EARTH","ARG_OF_PERICENTER":"94.7507","ELEMENT_SET_NO":"999","MEAN_MOTION":"15.06405665","ECCENTRICITY":"0.00012330","INCLINATION":"53.0562","MEAN_ELEMENT_THEORY":"SGP4","TIME_SYSTEM":"UTC","PERIOD":"95.592","EPOCH":"2021-09-19T14:40:37.286688","REF_FRAME":"TEME","MEAN_MOTION_DOT":"0.00000998","APOAPSIS":"548.050","LAUNCH_DATE":"2021-03-11","FILE":"3120015","TLE_LINE1":"1 47835U 21018BA  21262.61154267  .00000998  00000-0  85896-4 0  9990","COUNTRY_CODE":"US","REV_AT_EPOCH":"3052","EPHEMERIS_TYPE":"0","CLASSIFICATION_TYPE":"U","RA_OF_ASC_NODE":"23.3273","SITE":"AFETR","SEMIMAJOR_AXIS":"6925.331","BSTAR":"0.00008589600000","TLE_LINE2":"2 47835  53.0562  23.3273 0001233  94.7507 265.3622 15.06405665 30525","RCS_SIZE":"LARGE","PERIAPSIS":"546.342","OBJECT_ID":"2021-018BA","OBJECT_NAME":"STARLINK-2425","GP_ID":"185025090","MEAN_MOTION_DDOT":"0.0000000000000","DECAY_DATE":null,"MEAN_ANOMALY":"265.3622","OBJECT_TYPE":"PAYLOAD","NORAD_CAT_ID":"47835"}];
